[
    {
        "id": 5962,
        "name": "STARLINK-32475",
        "distance_km": 488.07,
        "elevation_deg": 85.62,
        "visible": true,
        "latitude": 50.676279379998114,
        "longitude": 18.24306200082199,
        "datetime_utc": "2025-09-01T23:43:18.643000",
        "tle": {
            "line-1": "1 61728U 24196X   25244.25053470  .00000410  00000+0  25967-4 0  9996",
            "line-2": "2 61728  53.1597 261.1890 0001317  84.6372 275.4779 15.30192664 48151"
        }
    },
    {
        "id": 6076,
        "name": "STARLINK-11326 [DTC]",
        "distance_km": 477.74,
        "elevation_deg": 85.72,
        "visible": true,
        "latitude": 49.35220033349483,
        "longitude": 17.52068562280188,
        "datetime_utc": "2025-09-01T23:43:18.643000",
        "tle": {
            "line-1": "1 62010U 24213C   25244.26847721  .00257333  00000+0  20605-2 0  9992",
            "line-2": "2 62010  53.1575 255.0962 0002427  25.1173 334.9962 15.69746582 45165"
        }
    },
    {
        "id": 6977,
        "name": "STARLINK-33815",
        "distance_km": 167.7,
        "elevation_deg": 88.5,
        "visible": true,
        "latitude": 51.444831207606306,
        "longitude": 13.612609614985315,
        "datetime_utc": "2025-09-01T23:43:18.643000",
        "tle": {
            "line-1": "1 63497U 25071E   25244.19012696  .00038217  00000+0  12945-2 0  9998",
            "line-2": "2 63497  53.1573 300.3486 0001758  81.9877 278.1324 15.30232702 23759"
        }
    }
]